NORAD_CAT_ID,OBJECT_NAME,OBJECT_TYPE,EPOCH,MEAN_MOTION,ECCENTRICITY,INCLINATION,RA_OF_ASC_NODE,ARG_OF_PERICENTER,MEAN_ANOMALY,BSTAR,MEAN_MOTION_DOT,MEAN_MOTION_DDOT,TLE_LINE0,TLE_LINE1,TLE_LINE2,SEMIMAJOR_AXIS,PERIOD,APOGEE,PERIGEE,DECAYED
53969.0,STARLINK-4468,PAYLOAD,2024-04-10 12:41:57,15.08834432,0.0001566,53.2162,118.2778,85.6003,274.5168,0.00012341,1.676e-05,0.0,0 STARLINK-4468,1 53969U 22125F   24101.52913990  .00001676  00000-0  12341-3 0  9994,2 53969  53.2162 118.2778 0001566  85.6003 274.5168 15.08834432 83997,6917.897,95.438,540.846,538.679,0.0
53969.0,STARLINK-4468,PAYLOAD,2024-04-11 04:35:50,15.08820659,0.000151,53.2158,115.3048,85.3977,274.7187,4.573e-06,-2.15e-06,0.0,0 STARLINK-4468,1 53969U 22125F   24102.19155771 -.00000215  00000-0  45730-5 0  9992,2 53969  53.2158 115.3048 0001510  85.3977 274.7187 15.08820659 84097,6917.94,95.439,540.849,538.76,0.0
53969.0,STARLINK-4468,PAYLOAD,2024-04-11 07:46:36,15.08828052,0.0001519,53.2163,114.7103,86.6435,273.4731,6.2408e-05,7.05e-06,0.0,0 STARLINK-4468,1 53969U 22125F   24102.32403283  .00000705  00000-0  62408-4 0  9994,2 53969  53.2163 114.7103 0001519  86.6435 273.4731 15.08828052 84119,6917.917,95.438,540.833,538.731,0.0
53969.0,STARLINK-4468,PAYLOAD,2024-04-11 17:18:55,15.08830883,0.0001621,53.2167,112.9284,93.1608,266.957,4.1357e-05,3.7e-06,0.0,0 STARLINK-4468,1 53969U 22125F   24102.72147453  .00000370  00000-0  41357-4 0  9990,2 53969  53.2167 112.9284 0001621  93.1608 266.9570 15.08830883 84104,6917.908,95.438,540.895,538.652,0.0
53969.0,STARLINK-4468,PAYLOAD,2024-04-12 06:02:00,15.08837369,0.0001521,53.2162,110.547,90.1434,269.9732,3.2409e-05,2.28e-06,0.0,0 STARLINK-4468,1 53969U 22125F   24103.25139284  .00000228  00000-0  32409-4 0  9992,2 53969  53.2162 110.5470 0001521  90.1434 269.9732 15.08837369 84258,6917.888,95.438,540.806,538.701,0.0
53969.0,STARLINK-4468,PAYLOAD,2024-04-13 09:03:33,15.08838251,0.0001517,53.2163,105.4913,89.3137,270.8029,6.6669e-05,7.73e-06,0.0,0 STARLINK-4468,1 53969U 22125F   24104.37747538  .00000773  00000-0  66669-4 0  9993,2 53969  53.2163 105.4913 0001517  89.3137 270.8029 15.08838251 84429,6917.886,95.438,540.8,538.701,0.0
53969.0,STARLINK-4468,PAYLOAD,2024-04-14 04:08:12,15.08830624,0.0001666,53.2178,101.9235,93.4423,266.676,-2.1794e-05,-6.35e-06,0.0,0 STARLINK-4468,1 53969U 22125F   24105.17236720 -.00000635  00000-0 -21794-4 0  9997,2 53969  53.2178 101.9235 0001666  93.4423 266.6760 15.08830624 84546,6917.909,95.438,540.927,538.622,0.0
53969.0,STARLINK-4468,PAYLOAD,2024-04-14 08:54:21,15.08833811,0.0001676,53.2176,101.0308,91.1843,268.9341,1.1103e-05,-1.11e-06,0.0,0 STARLINK-4468,1 53969U 22125F   24105.37108508 -.00000111  00000-0  11103-4 0  9992,2 53969  53.2176 101.0308 0001676  91.1843 268.9341 15.08833811 84505,6917.899,95.438,540.924,538.605,0.0
53969.0,STARLINK-4468,PAYLOAD,2024-04-15 03:58:58,15.0884428,0.0001689,53.2178,97.4634,89.3771,270.7414,0.00010992,1.462e-05,0.0,0 STARLINK-4468,1 53969U 22125F   24106.16595700  .00001462  00000-0  10992-3 0  9997,2 53969  53.2178  97.4634 0001689  89.3771 270.7414 15.08844280 84694,6917.867,95.437,540.901,538.564,0.0
53969.0,STARLINK-4468,PAYLOAD,2024-04-15 08:45:07,15.08848127,0.0001724,53.218,96.5677,83.7427,276.3761,0.00014198,1.973e-05,0.0,0 STARLINK-4468,1 53969U 22125F   24106.36467379  .00001973  00000-0  14198-3 0  9998,2 53969  53.2180  96.5677 0001724  83.7427 276.3761 15.08848127 84657,6917.856,95.437,540.913,538.528,0.0
53969.0,STARLINK-4468,PAYLOAD,2024-04-16 03:49:46,15.08841263,0.0001719,53.2178,93.0038,84.3285,275.7903,0.000116,1.559e-05,0.0,0 STARLINK-4468,1 53969U 22125F   24107.15956024  .00001559  00000-0  11600-3 0  9991,2 53969  53.2178  93.0038 0001719  84.3285 275.7903 15.08841263 84846,6917.877,95.437,540.931,538.552,0.0
53969.0,STARLINK-4468,PAYLOAD,2024-04-16 08:35:54,15.08848534,0.0001519,53.2179,92.1075,98.7056,261.4109,0.00013307,1.831e-05,0.0,0 STARLINK-4468,1 53969U 22125F   24107.35827425  .00001831  00000-0  13307-3 0  9994,2 53969  53.2179  92.1075 0001519  98.7056 261.4109 15.08848534 84805,6917.854,95.437,540.77,538.668,0.0
53969.0,STARLINK-4468,PAYLOAD,2024-04-16 16:32:50,15.08850542,0.0001543,53.2171,90.6217,95.6272,264.4896,0.00014913,2.087e-05,0.0,0 STARLINK-4468,1 53969U 22125F   24107.68947217  .00002087  00000-0  14913-3 0  9990,2 53969  53.2171  90.6217 0001543  95.6272 264.4896 15.08850542 84922,6917.848,95.437,540.781,538.646,0.0
53969.0,STARLINK-4468,PAYLOAD,2024-04-17 08:26:41,15.08860301,0.0001761,53.2181,87.6471,101.2521,258.8669,0.0002216,3.242e-05,0.0,0 STARLINK-4468,1 53969U 22125F   24108.35186552  .00003242  00000-0  22160-3 0  9999,2 53969  53.2181  87.6471 0001761 101.2521 258.8669 15.08860301 84956,6917.818,95.436,540.902,538.465,0.0
53969.0,STARLINK-4468,PAYLOAD,2024-04-18 03:31:21,15.08816512,0.0001469,53.2176,84.0797,102.5711,257.5445,-0.0002832,-4.789e-05,0.0,0 STARLINK-4468,1 53969U 22125F   24109.14677311 -.00004789  00000-0 -28320-3 0  9998,2 53969  53.2176  84.0797 0001469 102.5711 257.5445 15.08816512 85147,6917.952,95.439,540.833,538.801,0.0
53969.0,STARLINK-4468,PAYLOAD,2024-04-18 08:17:31,15.08811047,0.0001293,53.2173,83.1928,100.2355,259.8783,-0.0003887,-6.464e-05,0.0,0 STARLINK-4468,1 53969U 22125F   24109.34549977 -.00006464  00000-0 -38870-3 0  9999,2 53969  53.2173  83.1928 0001293 100.2355 259.8783 15.08811047 85108,6917.969,95.439,540.728,538.939,0.0
53969.0,STARLINK-4468,PAYLOAD,2024-04-19 04:57:31,15.0884482,0.0001431,53.2175,79.3234,100.129,259.9864,0.00022824,3.347e-05,0.0,0 STARLINK-4468,1 53969U 22125F   24110.20661638  .00003347  00000-0  22824-3 0  9992,2 53969  53.2175  79.3234 0001431 100.1290 259.9864 15.08844820 85306,6917.866,95.437,540.721,538.741,0.0
53969.0,STARLINK-4468,PAYLOAD,2024-04-20 06:23:40,15.08889267,0.0001274,53.2176,74.5694,97.1692,262.9445,0.0011924,0.00018766,0.0,0 STARLINK-4468,1 53969U 22125F   24111.26644232  .00018766  00000-0  11924-2 0  9999,2 53969  53.2176  74.5694 0001274  97.1692 262.9445 15.08889267 85460,6917.73,95.434,540.476,538.713,0.0
53969.0,STARLINK-4468,PAYLOAD,2024-04-21 04:39:04,15.08852542,0.0001331,53.2175,70.403,103.7913,256.3227,-0.0002643,-4.493e-05,0.0,0 STARLINK-4468,1 53969U 22125F   24112.19380153 -.00004493  00000-0 -26430-3 0  9994,2 53969  53.2175  70.4030 0001331 103.7913 256.3227 15.08852542 85609,6917.842,95.437,540.628,538.786,0.0
53969.0,STARLINK-4468,PAYLOAD,2024-04-21 07:49:50,15.08852177,0.0001358,53.2178,69.8069,98.003,262.1116,-0.00022375,-3.848e-05,0.0,0 STARLINK-4468,1 53969U 22125F   24112.32628105 -.00003848  00000-0 -22375-3 0  9998,2 53969  53.2178  69.8069 0001358  98.0030 262.1116 15.08852177 85551,6917.843,95.437,540.648,538.769,0.0
53969.0,STARLINK-4468,PAYLOAD,2024-04-22 06:05:14,15.08858193,0.0001504,53.2177,65.6433,105.2662,254.8497,0.00014629,2.042e-05,0.0,0 STARLINK-4468,1 53969U 22125F   24113.25363471  .00002042  00000-0  14629-3 0  9999,2 53969  53.2177  65.6433 0001504 105.2662 254.8497 15.08858193 85761,6917.825,95.436,540.73,538.649,0.0
53969.0,STARLINK-4468,PAYLOAD,2024-04-22 20:23:44,15.08823575,0.0001332,53.2178,62.9667,106.7201,253.3937,-7.2871e-05,-1.447e-05,0.0,0 STARLINK-4468,1 53969U 22125F   24113.84981545 -.00001447  00000-0 -72871-4 0  9996,2 53969  53.2178  62.9667 0001332 106.7201 253.3937 15.08823575 85854,6917.931,95.439,540.717,538.874,0.0
53969.0,STARLINK-4468,PAYLOAD,2024-04-23 02:45:16,15.08834933,0.0001931,53.2178,61.7809,118.996,241.1226,9.2142e-05,1.178e-05,0.0,0 STARLINK-4468,1 53969U 22125F   24114.11477275  .00001178  00000-0  92142-4 0  9999,2 53969  53.2178  61.7809 0001931 118.9960 241.1226 15.08834933 85891,6917.896,95.438,541.097,538.425,0.0
53969.0,STARLINK-4468,PAYLOAD,2024-04-23 05:56:02,15.08841463,0.0002063,53.2188,61.1833,122.4372,237.682,0.00017302,2.467e-05,0.0,0 STARLINK-4468,1 53969U 22125F   24114.24724846  .00002467  00000-0  17302-3 0  9998,2 53969  53.2188  61.1833 0002063 122.4372 237.6820 15.08841463 85848,6917.876,95.437,541.168,538.314,0.0
53969.0,STARLINK-4468,PAYLOAD,2024-04-24 05:46:48,15.08856103,0.0001687,53.2193,56.7144,110.1406,249.9767,0.00017564,2.51e-05,0.0,0 STARLINK-4468,1 53969U 22125F   24115.24084075  .00002510  00000-0  17564-3 0  9991,2 53969  53.2193  56.7144 0001687 110.1406 249.9767 15.08856103 86060,6917.831,95.437,540.863,538.529,0.0
53969.0,STARLINK-4468,PAYLOAD,2024-04-25 02:26:50,15.08840766,0.0001677,53.2198,52.8576,114.6584,245.4583,2.8014e-05,1.58e-06,0.0,0 STARLINK-4468,1 53969U 22125F   24116.10197065  .00000158  00000-0  28014-4 0  9990,2 53969  53.2198  52.8576 0001677 114.6584 245.4583 15.08840766 86195,6917.878,95.438,540.903,538.583,0.0
53969.0,STARLINK-4468,PAYLOAD,2024-04-26 11:49:55,15.08851769,0.0001093,53.2186,46.6111,86.996,273.1157,9.2281e-05,1.182e-05,0.0,0 STARLINK-4468,1 53969U 22125F   24117.49300238  .00001182  00000-0  92281-4 0  9996,2 53969  53.2186  46.6111 0001093  86.9960 273.1157 15.08851769 86403,6917.844,95.437,540.466,538.953,0.0
53969.0,STARLINK-4468,PAYLOAD,2024-04-27 05:19:10,15.08856599,0.0001306,53.2187,43.3429,92.5351,267.579,0.00032716,4.925e-05,0.0,0 STARLINK-4468,1 53969U 22125F   24118.22164398  .00004925  00000-0  32716-3 0  9997,2 53969  53.2187  43.3429 0001306  92.5351 267.5790 15.08856599 86444,6917.83,95.437,540.598,538.791,0.0
53969.0,STARLINK-4468,PAYLOAD,2024-04-28 03:34:35,15.08836311,0.0001204,53.2185,39.1821,83.1656,276.9473,-0.00010385,-1.94e-05,0.0,0 STARLINK-4468,1 53969U 22125F   24119.14901785 -.00001940  00000-0 -10385-3 0  9992,2 53969  53.2185  39.1821 0001204  83.1656 276.9473 15.08836311 86657,6917.892,95.438,540.59,538.924,0.0
53969.0,STARLINK-4468,PAYLOAD,2024-04-28 11:31:30,15.08836734,0.0001208,53.2177,37.6934,67.5525,292.5595,-3.1359e-05,-7.87e-06,0.0,0 STARLINK-4468,1 53969U 22125F   24119.48021756 -.00000787  00000-0 -31359-4 0  9993,2 53969  53.2177  37.6934 0001208  67.5525 292.5595 15.08836734 86637,6917.89,95.438,540.591,538.92,0.0
